start=new Date('2021-09-02T00:00:00.000Z').valueOf();
sats=[{"PERIAPSIS":"244.622","MEAN_ANOMALY":"56.4845","RA_OF_ASC_NODE":"57.1501","DECAY_DATE":null,"EPHEMERIS_TYPE":"0","NORAD_CAT_ID":"46683","OBJECT_ID":"2020-073P","MEAN_ELEMENT_THEORY":"SGP4","COUNTRY_CODE":"US","GP_ID":"183905703","BSTAR":"0.00183830000000","LAUNCH_DATE":"2020-10-18","FILE":"3107094","REF_FRAME":"TEME","MEAN_MOTION_DOT":"0.01471476","ECCENTRICITY":"0.00152730","EPOCH":"2021-09-02T01:09:09.562176","PERIOD":"89.601","OBJECT_TYPE":"PAYLOAD","APOAPSIS":"264.882","SEMIMAJOR_AXIS":"6632.887","RCS_SIZE":"LARGE","TLE_LINE2":"2 46683  53.0416  57.1501 0015273 303.4306  56.4845 16.07122034 49386","ARG_OF_PERICENTER":"303.4306","INCLINATION":"53.0416","CLASSIFICATION_TYPE":"U","TIME_SYSTEM":"UTC","TLE_LINE1":"1 46683U 20073P   21245.04802734  .01471476  14051-2  18383-2 0  9999","MEAN_MOTION":"16.07122034","MEAN_MOTION_DDOT":"0.0014051000000","OBJECT_NAME":"STARLINK-1778","SITE":"AFETR","CENTER_NAME":"EARTH","ELEMENT_SET_NO":"999","REV_AT_EPOCH":"4938"},{"ECCENTRICITY":"0.00020980","EPOCH":"2021-09-01T18:53:03.762240","PERIOD":"95.593","OBJECT_TYPE":"PAYLOAD","APOAPSIS":"548.698","SEMIMAJOR_AXIS":"6925.380","RCS_SIZE":"LARGE","TLE_LINE2":"2 46684  53.0553  88.3337 0002098  80.4632 279.6594 15.06389879 48454","ARG_OF_PERICENTER":"80.4632","INCLINATION":"53.0553","CLASSIFICATION_TYPE":"U","TIME_SYSTEM":"UTC","TLE_LINE1":"1 46684U 20073Q   21244.78684910  .00001361  00000-0  11028-3 0  9992","MEAN_MOTION":"15.06389879","MEAN_MOTION_DDOT":"0.0000000000000","OBJECT_NAME":"STARLINK-1780","SITE":"AFETR","CENTER_NAME":"EARTH","ELEMENT_SET_NO":"999","REV_AT_EPOCH":"4845","PERIAPSIS":"545.792","MEAN_ANOMALY":"279.6594","RA_OF_ASC_NODE":"88.3337","DECAY_DATE":null,"EPHEMERIS_TYPE":"0","NORAD_CAT_ID":"46684","OBJECT_ID":"2020-073Q","MEAN_ELEMENT_THEORY":"SGP4","COUNTRY_CODE":"US","GP_ID":"183926295","BSTAR":"0.00011028000000","LAUNCH_DATE":"2020-10-18","FILE":"3107096","REF_FRAME":"TEME","MEAN_MOTION_DOT":"0.00001361"},{"MEAN_MOTION_DOT":"0.00000841","FILE":"3107096","REF_FRAME":"TEME","LAUNCH_DATE":"2020-10-18","BSTAR":"0.00007542800000","GP_ID":"183927044","MEAN_ELEMENT_THEORY":"SGP4","COUNTRY_CODE":"US","NORAD_CAT_ID":"46685","OBJECT_ID":"2020-073R","DECAY_DATE":null,"EPHEMERIS_TYPE":"0","RA_OF_ASC_NODE":"102.7571","MEAN_ANOMALY":"287.3406","PERIAPSIS":"545.883","CENTER_NAME":"EARTH","SITE":"AFETR","REV_AT_EPOCH":"4825","ELEMENT_SET_NO":"999","MEAN_MOTION_DDOT":"0.0000000000000","OBJECT_NAME":"STARLINK-1781","MEAN_MOTION":"15.06376224","INCLINATION":"53.0544","CLASSIFICATION_TYPE":"U","TLE_LINE1":"1 46685U 20073R   21244.90895929  .00000841  00000-0  75428-4 0  9998","TIME_SYSTEM":"UTC","TLE_LINE2":"2 46685  53.0544 102.7571 0002027  72.7804 287.3406 15.06376224 48259","ARG_OF_PERICENTER":"72.7804","RCS_SIZE":"LARGE","SEMIMAJOR_AXIS":"6925.421","APOAPSIS":"548.690","PERIOD":"95.594","OBJECT_TYPE":"PAYLOAD","ECCENTRICITY":"0.00020270","EPOCH":"2021-09-01T21:48:54.082656"},{"TIME_SYSTEM":"UTC","TLE_LINE1":"1 46686U 20073S   21244.89050568  .00001726  00000-0  13478-3 0  9998","INCLINATION":"53.0543","CLASSIFICATION_TYPE":"U","ARG_OF_PERICENTER":"94.0973","TLE_LINE2":"2 46686  53.0543 102.8525 0001801  94.0973 266.0222 15.06392056 48253","RCS_SIZE":"LARGE","ELEMENT_SET_NO":"999","REV_AT_EPOCH":"4825","CENTER_NAME":"EARTH","SITE":"AFETR","OBJECT_NAME":"STARLINK-1783","MEAN_MOTION_DDOT":"0.0000000000000","MEAN_MOTION":"15.06392056","OBJECT_TYPE":"PAYLOAD","PERIOD":"95.593","EPOCH":"2021-09-01T21:22:19.690752","ECCENTRICITY":"0.00018010","SEMIMAJOR_AXIS":"6925.373","APOAPSIS":"548.485","BSTAR":"0.00013478000000","GP_ID":"183927793","COUNTRY_CODE":"US","MEAN_ELEMENT_THEORY":"SGP4","MEAN_MOTION_DOT":"0.00001726","REF_FRAME":"TEME","FILE":"3107096","LAUNCH_DATE":"2020-10-18","RA_OF_ASC_NODE":"102.8525","MEAN_ANOMALY":"266.0222","PERIAPSIS":"545.991","OBJECT_ID":"2020-073S","NORAD_CAT_ID":"46686","EPHEMERIS_TYPE":"0","DECAY_DATE":null},{"NORAD_CAT_ID":"46687","OBJECT_ID":"2020-073T","DECAY_DATE":null,"EPHEMERIS_TYPE":"0","RA_OF_ASC_NODE":"68.2002","MEAN_ANOMALY":"266.6908","PERIAPSIS":"546.045","MEAN_MOTION_DOT":"0.00000945","FILE":"3107096","REF_FRAME":"TEME","LAUNCH_DATE":"2020-10-18","BSTAR":"0.00008237200000","GP_ID":"183927547","MEAN_ELEMENT_THEORY":"SGP4","COUNTRY_CODE":"US","SEMIMAJOR_AXIS":"6925.418","APOAPSIS":"548.520","PERIOD":"95.594","OBJECT_TYPE":"PAYLOAD","ECCENTRICITY":"0.00017870","EPOCH":"2021-09-01T19:27:34.663104","SITE":"AFETR","CENTER_NAME":"EARTH","REV_AT_EPOCH":"4873","ELEMENT_SET_NO":"999","MEAN_MOTION_DDOT":"0.0000000000000","OBJECT_NAME":"STARLINK-1784","MEAN_MOTION":"15.06377384","CLASSIFICATION_TYPE":"U","INCLINATION":"53.0553","TIME_SYSTEM":"UTC","TLE_LINE1":"1 46687U 20073T   21244.81081786  .00000945  00000-0  82372-4 0  9999","TLE_LINE2":"2 46687  53.0553  68.2002 0001787  93.4285 266.6908 15.06377384 48739","ARG_OF_PERICENTER":"93.4285","RCS_SIZE":"LARGE"},{"APOAPSIS":"511.949","SEMIMAJOR_AXIS":"6888.305","ECCENTRICITY":"0.00025820","EPOCH":"2021-09-01T21:00:46.397664","OBJECT_TYPE":"PAYLOAD","PERIOD":"94.826","MEAN_MOTION":"15.18567715","CENTER_NAME":"EARTH","SITE":"AFETR","ELEMENT_SET_NO":"999","REV_AT_EPOCH":"4826","MEAN_MOTION_DDOT":"0.0000000000000","OBJECT_NAME":"STARLINK-1786","RCS_SIZE":"LARGE","INCLINATION":"53.0563","CLASSIFICATION_TYPE":"U","TLE_LINE1":"1 46688U 20073U   21244.87553701  .00211822  00000-0  98468-2 0  9996","TIME_SYSTEM":"UTC","TLE_LINE2":"2 46688  53.0563 102.4635 0002582 158.9347 201.1754 15.18567715 48267","ARG_OF_PERICENTER":"158.9347","DECAY_DATE":null,"EPHEMERIS_TYPE":"0","NORAD_CAT_ID":"46688","OBJECT_ID":"2020-073U","PERIAPSIS":"508.392","RA_OF_ASC_NODE":"102.4635","MEAN_ANOMALY":"201.1754","LAUNCH_DATE":"2020-10-18","MEAN_MOTION_DOT":"0.00211822","FILE":"3107096","REF_FRAME":"TEME","MEAN_ELEMENT_THEORY":"SGP4","COUNTRY_CODE":"US","BSTAR":"0.00984680000000","GP_ID":"183926795"},{"OBJECT_ID":"2020-073V","NORAD_CAT_ID":"46689","EPHEMERIS_TYPE":"0","DECAY_DATE":null,"RA_OF_ASC_NODE":"102.8078","MEAN_ANOMALY":"279.1382","PERIAPSIS":"545.682","MEAN_MOTION_DOT":"0.00001660","REF_FRAME":"TEME","FILE":"3107096","LAUNCH_DATE":"2020-10-18","BSTAR":"0.00013032000000","GP_ID":"183926545","COUNTRY_CODE":"US","MEAN_ELEMENT_THEORY":"SGP4","SEMIMAJOR_AXIS":"6925.366","APOAPSIS":"548.780","OBJECT_TYPE":"PAYLOAD","PERIOD":"95.592","EPOCH":"2021-09-01T21:38:14.885088","ECCENTRICITY":"0.00022370","REV_AT_EPOCH":"4950","ELEMENT_SET_NO":"999","SITE":"AFETR","CENTER_NAME":"EARTH","OBJECT_NAME":"STARLINK-1788","MEAN_MOTION_DDOT":"0.0000000000000","MEAN_MOTION":"15.06394357","TIME_SYSTEM":"UTC","TLE_LINE1":"1 46689U 20073V   21244.90156117  .00001660  00000-0  13032-3 0  9993","INCLINATION":"53.0551","CLASSIFICATION_TYPE":"U","ARG_OF_PERICENTER":"80.9860","TLE_LINE2":"2 46689  53.0551 102.8078 0002237  80.9860 279.1382 15.06394357 49508","RCS_SIZE":"LARGE"},{"EPOCH":"2021-09-01T18:27:49.410432","ECCENTRICITY":"0.00020620","OBJECT_TYPE":"PAYLOAD","PERIOD":"95.592","APOAPSIS":"548.655","SEMIMAJOR_AXIS":"6925.362","RCS_SIZE":"LARGE","ARG_OF_PERICENTER":"88.4553","TLE_LINE2":"2 46690  53.0549  78.3863 0002062  88.4553 271.6672 15.06395673 48582","TLE_LINE1":"1 46690U 20073W   21244.76932188  .00000981  00000-0  84753-4 0  9993","TIME_SYSTEM":"UTC","INCLINATION":"53.0549","CLASSIFICATION_TYPE":"U","MEAN_MOTION":"15.06395673","OBJECT_NAME":"STARLINK-1789","MEAN_MOTION_DDOT":"0.0000000000000","ELEMENT_SET_NO":"999","REV_AT_EPOCH":"4858","CENTER_NAME":"EARTH","SITE":"AFETR","PERIAPSIS":"545.799","MEAN_ANOMALY":"271.6672","RA_OF_ASC_NODE":"78.3863","EPHEMERIS_TYPE":"0","DECAY_DATE":null,"OBJECT_ID":"2020-073W","NORAD_CAT_ID":"46690","COUNTRY_CODE":"US","MEAN_ELEMENT_THEORY":"SGP4","GP_ID":"183927294","BSTAR":"0.00008475300000","LAUNCH_DATE":"2020-10-18","REF_FRAME":"TEME","FILE":"3107096","MEAN_MOTION_DOT":"0.00000981"},{"CENTER_NAME":"EARTH","SITE":"AFETR","ELEMENT_SET_NO":"999","REV_AT_EPOCH":"4845","MEAN_MOTION_DDOT":"0.0000000000000","OBJECT_NAME":"STARLINK-1790","MEAN_MOTION":"15.06391830","INCLINATION":"53.0556","CLASSIFICATION_TYPE":"U","TIME_SYSTEM":"UTC","TLE_LINE1":"1 46691U 20073X   21244.83476510  .00003036  00000-0  22271-3 0  9994","TLE_LINE2":"2 46691  53.0556  88.1036 0001933  79.6874 280.4333 15.06391830 48455","ARG_OF_PERICENTER":"79.6874","RCS_SIZE":"LARGE","SEMIMAJOR_AXIS":"6925.374","APOAPSIS":"548.577","PERIOD":"95.593","OBJECT_TYPE":"PAYLOAD","ECCENTRICITY":"0.00019330","EPOCH":"2021-09-01T20:02:03.704640","MEAN_MOTION_DOT":"0.00003036","FILE":"3107096","REF_FRAME":"TEME","LAUNCH_DATE":"2020-10-18","BSTAR":"0.00022271000000","GP_ID":"183928047","MEAN_ELEMENT_THEORY":"SGP4","COUNTRY_CODE":"US","NORAD_CAT_ID":"46691","OBJECT_ID":"2020-073X","DECAY_DATE":null,"EPHEMERIS_TYPE":"0","RA_OF_ASC_NODE":"88.1036","MEAN_ANOMALY":"280.4333","PERIAPSIS":"545.900"},{"GP_ID":"183926296","BSTAR":"0.00010027000000","COUNTRY_CODE":"US","MEAN_ELEMENT_THEORY":"SGP4","REF_FRAME":"TEME","FILE":"3107096","MEAN_MOTION_DOT":"0.00001212","LAUNCH_DATE":"2020-10-18","MEAN_ANOMALY":"270.6034","RA_OF_ASC_NODE":"102.8781","PERIAPSIS":"545.937","OBJECT_ID":"2020-073Y","NORAD_CAT_ID":"46692","EPHEMERIS_TYPE":"0","DECAY_DATE":null,"ARG_OF_PERICENTER":"89.5165","TLE_LINE2":"2 46692  53.0536 102.8781 0001833  89.5165 270.6034 15.06402236 48257","TIME_SYSTEM":"UTC","TLE_LINE1":"1 46692U 20073Y   21244.88680496  .00001212  00000-0  10027-3 0  9990","CLASSIFICATION_TYPE":"U","INCLINATION":"53.0536","RCS_SIZE":"LARGE","OBJECT_NAME":"STARLINK-1791","MEAN_MOTION_DDOT":"0.0000000000000","REV_AT_EPOCH":"4825","ELEMENT_SET_NO":"999","SITE":"AFETR","CENTER_NAME":"EARTH","MEAN_MOTION":"15.06402236","PERIOD":"95.592","OBJECT_TYPE":"PAYLOAD","EPOCH":"2021-09-01T21:16:59.948544","ECCENTRICITY":"0.00018330","SEMIMAJOR_AXIS":"6925.342","APOAPSIS":"548.476"}];
